{
    "links": {
        "self": "http://www.neowsapp.com/rest/v1/neo/3752721?api_key=iIulBulltgU6a56xZRHN4H3l9WmuAYTsLGpBGhQ2"
    },
    "id": "3752721",
    "neo_reference_id": "3752721",
    "name": "(2016 JO)",
    "designation": "2016 JO",
    "nasa_jpl_url": "http://ssd.jpl.nasa.gov/sbdb.cgi?sstr=3752721",
    "absolute_magnitude_h": 23.4,
    "estimated_diameter": {
        "kilometers": {
            "estimated_diameter_min": 0.0555334912,
            "estimated_diameter_max": 0.1241766613
        },
        "meters": {
            "estimated_diameter_min": 55.5334911581,
            "estimated_diameter_max": 124.1766612574
        },
        "miles": {
            "estimated_diameter_min": 0.0345069009,
            "estimated_diameter_max": 0.0771597762
        },
        "feet": {
            "estimated_diameter_min": 182.1964991311,
            "estimated_diameter_max": 407.4037573197
        }
    },
    "is_potentially_hazardous_asteroid": false,
    "close_approach_data": [
        {
            "close_approach_date": "2016-03-23",
            "close_approach_date_full": "2016-Mar-23 06:44",
            "epoch_date_close_approach": 1458715440000,
            "relative_velocity": {
                "kilometers_per_second": "3.7734620743",
                "kilometers_per_hour": "13584.4634674819",
                "miles_per_hour": "8440.8573140029"
            },
            "miss_distance": {
                "astronomical": "0.2187392934",
                "lunar": "85.0895851326",
                "kilometers": "32722932.377945058",
                "miles": "20333087.3218674804"
            },
            "orbiting_body": "Earth"
        }
    ],
    "orbital_data": {
        "orbit_id": "4",
        "orbit_determination_date": "2019-07-17 06:11:14",
        "first_observation_date": "2016-05-01",
        "last_observation_date": "2016-05-04",
        "data_arc_in_days": 3,
        "observations_used": 16,
        "orbit_uncertainty": "9",
        "minimum_orbit_intersection": ".195997",
        "jupiter_tisserand_invariant": "3.784",
        "epoch_osculation": "2457511.5",
        "eccentricity": ".4065936564947198",
        "semi_major_axis": "1.9440233905219",
        "inclination": "7.405864146052251",
        "ascending_node_longitude": "229.6538735125282",
        "orbital_period": "990.03524571935",
        "perihelion_distance": "1.153595811858338",
        "perihelion_argument": "298.2404414449772",
        "aphelion_distance": "2.734450969185462",
        "perihelion_time": "2457449.920199140818",
        "mean_anomaly": "22.39185766886303",
        "mean_motion": ".3636234180111714",
        "equinox": "J2000",
        "orbit_class": {
            "orbit_class_type": "AMO",
            "orbit_class_description": "Near-Earth asteroid orbits similar to that of 1221 Amor",
            "orbit_class_range": "1.017 AU < q (perihelion) < 1.3 AU"
        }
    },
    "is_sentry_object": false
}